STARLINK-31662          
1 59584U 24076W   26068.24697533  .00007869  00000+0  29564-3 0  9999
2 59584  43.0010  11.6107 0001342 243.6709 116.4005 15.27527147106430
FLOCK 4G-24             
1 62637U 25009AE  26068.72509072  .00010513  00000+0  38996-3 0  9991
2 62637  97.4061 151.5140 0001802 280.2808  79.8228 15.27784978 63732
